{
  "type": "FeatureCollection",
  "name": "passage_first_reversible_support_prototypes",
  "features": [
    {
      "type": "Feature",
      "id": "BLDG-PF-01",
      "properties": {
        "id": "BLDG-PF-01",
        "layer": "BUILDING_FOOTPRINT",
        "name_zh": "大钟寺名称关联证据接口可逆支撑原型",
        "building_type": "community_service",
        "area_sqm_declared": 1728.0,
        "source_type": "agent_generated_design",
        "confidence": "low",
        "geometry_role": "design_proposal",
        "usage_note": "可逆、低成本的空间原型轮廓；不是现状建筑、报建方案或落地点承诺。"
      },
      "geometry": {
        "type": "Polygon",
        "coordinates": [
          [
            [
              116.34807980313242,
              39.94680956375681
            ],
            [
              116.34807775150094,
              39.947025700494805
            ],
            [
              116.34892019823725,
              39.947030434728916
            ],
            [
              116.34892224721797,
              39.946814297954866
            ],
            [
              116.34807980313242,
              39.94680956375681
            ]
          ]
        ]
      }
    },
    {
      "type": "Feature",
      "id": "BLDG-PF-02",
      "properties": {
        "id": "BLDG-PF-02",
        "layer": "BUILDING_FOOTPRINT",
        "name_zh": "AI原点共测接口可逆支撑原型",
        "building_type": "lab",
        "area_sqm_declared": 1728.0,
        "source_type": "agent_generated_design",
        "confidence": "low",
        "geometry_role": "design_proposal",
        "usage_note": "可逆、低成本的空间原型轮廓；不是现状建筑、报建方案或落地点承诺。"
      },
      "geometry": {
        "type": "Polygon",
        "coordinates": [
          [
            [
              116.34707955102967,
              39.98838955888504
            ],
            [
              116.34707749322422,
              39.988605694024955
            ],
            [
              116.34792045034288,
              39.988610439598496
            ],
            [
              116.34792250549208,
              39.98839430442246
            ],
            [
              116.34707955102967,
              39.98838955888504
            ]
          ]
        ]
      }
    },
    {
      "type": "Feature",
      "id": "BLDG-PF-03",
      "properties": {
        "id": "BLDG-PF-03",
        "layer": "BUILDING_FOOTPRINT",
        "name_zh": "众智园证据实验接口可逆支撑原型",
        "building_type": "lab",
        "area_sqm_declared": 1728.0,
        "source_type": "agent_generated_design",
        "confidence": "low",
        "geometry_role": "design_proposal",
        "usage_note": "可逆、低成本的空间原型轮廓；不是现状建筑、报建方案或落地点承诺。"
      },
      "geometry": {
        "type": "Polygon",
        "coordinates": [
          [
            [
              116.34807937665757,
              40.0166395616466
            ],
            [
              116.34807731994809,
              40.01685569577284
            ],
            [
              116.34892062471688,
              40.01686043683538
            ],
            [
              116.34892267876633,
              40.01664430267307
            ],
            [
              116.34807937665757,
              40.0166395616466
            ]
          ]
        ]
      }
    }
  ]
}
