{
  "type": "FeatureCollection",
  "name": "passage_first_blue_green_interface",
  "features": [
    {
      "type": "Feature",
      "id": "GREEN-PF-01",
      "properties": {
        "id": "GREEN-PF-01",
        "layer": "GREEN_SPACE",
        "name_zh": "蓝绿退化感知与恢复观察翼（概念）",
        "land_use_code": "14",
        "area_sqm_declared": 374083.725,
        "source_type": "agent_generated_design",
        "confidence": "low",
        "geometry_role": "design_proposal",
        "usage_note": "表达遮荫、积水、落叶和恢复证据的观察界面；不声明现状绿地边界或海绵工程参数。"
      },
      "geometry": {
        "type": "Polygon",
        "coordinates": [
          [
            [
              116.34721911122658,
              39.988505880695854
            ],
            [
              116.34821899545078,
              40.016755882163274
            ],
            [
              116.3482210983786,
              40.01677703141112
            ],
            [
              116.34822588728454,
              40.01679792033474
            ],
            [
              116.34823331605118,
              40.016818347762104
            ],
            [
              116.34824331313759,
              40.01683811696544
            ],
            [
              116.34825578226823,
              40.01685703755588
            ],
            [
              116.34827060336005,
              40.01687492731705
            ],
            [
              116.3482876336789,
              40.0168916139599
            ],
            [
              116.34830670921414,
              40.01690693678203
            ],
            [
              116.34832764625808,
              40.01692074821534
            ],
            [
              116.34835024317516,
              40.016932915247224
            ],
            [
              116.34837428234394,
              40.016943320701635
            ],
            [
              116.34839953225274,
              40.0169518643675
            ],
            [
              116.3484257497295,
              40.01695846396396
            ],
            [
              116.34845268228358,
              40.016963055932706
            ],
            [
              116.34848007053749,
              40.01696559605015
            ],
            [
              116.34850765072497,
              40.01696605985331
            ],
            [
              116.3485351572312,
              40.01696444287547
            ],
            [
              116.34856232515106,
              40.01696076068913
            ],
            [
              116.34858889284023,
              40.01695504875607
            ],
            [
              116.34861460443518,
              40.01694736208577
            ],
            [
              116.34863921231737,
              40.01693777470573
            ],
            [
              116.34866247949792,
              40.016926378948405
            ],
            [
              116.3486841819001,
              40.01691328456201
            ],
            [
              116.34870411051726,
              40.016898617653574
            ],
            [
              116.3487220734258,
              40.01688251947441
            ],
            [
              116.34873789763346,
              40.01686514505971
            ],
            [
              116.34875143074525,
              40.01684666173547
            ],
            [
              116.34876254243125,
              40.01682724750706
            ],
            [
              116.3487711256815,
              40.01680708934479
            ],
            [
              116.34877709783657,
              40.01678638138339
            ],
            [
              116.34878040138366,
              40.016765323052276
            ],
            [
              116.34878100451022,
              40.01674411715491
            ],
            [
              116.3477810635804,
              39.98849905910577
            ],
            [
              116.34878077461859,
              39.94692399681109
            ],
            [
              116.3487799315569,
              39.946902795516635
            ],
            [
              116.3487763926032,
              39.94688175991391
            ],
            [
              116.34877019184194,
              39.94686109258701
            ],
            [
              116.34876138899209,
              39.94684099257323
            ],
            [
              116.34875006883192,
              39.94682165344612
            ],
            [
              116.34873634038246,
              39.94680326145134
            ],
            [
              116.34872033585741,
              39.94678599371307
            ],
            [
              116.34870220938996,
              39.94677001652814
            ],
            [
              116.34868213554823,
              39.94675548376467
            ],
            [
              116.34866030765423,
              39.946742535380146
            ],
            [
              116.34863693592187,
              39.94673129607369
            ],
            [
              116.34861224543262,
              39.94672187408508
            ],
            [
              116.34858647396788,
              39.94671436015246
            ],
            [
              116.34855986971915,
              39.94670882663848
            ],
            [
              116.34853268889772,
              39.946705326833374
            ],
            [
              116.3485051932674,
              39.946703894441896
            ],
            [
              116.34847764762368,
              39.94670454325859
            ],
            [
              116.34845031724367,
              39.946707267035016
            ],
            [
              116.34842346533148,
              39.94671203953995
            ],
            [
              116.3483973504834,
              39.94671881481198
            ],
            [
              116.34837222419772,
              39.94672752760208
            ],
            [
              116.34834832845264,
              39.94673809400201
            ],
            [
              116.34832589337596,
              39.946750412252364
            ],
            [
              116.3483051350289,
              39.946764363722565
            ],
            [
              116.34828625332531,
              39.94677981405327
            ],
            [
              116.34826943010646,
              39.94679661445027
            ],
            [
              116.34825482738972,
              39.9468146031175
            ],
            [
              116.34824258580839,
              39.94683360681511
            ],
            [
              116.348232823257,
              39.94685344252788
            ],
            [
              116.34822563375614,
              39.94687391922771
            ],
            [
              116.34822108654676,
              39.94689483971326
            ],
            [
              116.34821922542334,
              39.946916002509155
            ],
            [
              116.3472190553766,
              39.98849599874699
            ],
            [
              116.34721911122658,
              39.988505880695854
            ]
          ]
        ]
      }
    }
  ]
}
