{
  "type": "FeatureCollection",
  "name": "passage_first_conceptual_land_use",
  "features": [
    {
      "type": "Feature",
      "id": "LU-PF-01",
      "properties": {
        "id": "LU-PF-01",
        "layer": "LAND_USE",
        "name_zh": "南段公共通过接口试验带",
        "land_use_code": "1207",
        "area_sqm_declared": 1965542.763,
        "source_type": "agent_generated_design",
        "confidence": "low",
        "geometry_role": "design_proposal",
        "usage_note": "概念性空间治理分带，不替代现状调查、法定用地或控规调整。"
      },
      "geometry": {
        "type": "Polygon",
        "coordinates": [
          [
            [
              116.3407,
              39.939
            ],
            [
              116.3403111111111,
              39.953
            ],
            [
              116.3553,
              39.953
            ],
            [
              116.3553,
              39.939
            ],
            [
              116.3407,
              39.939
            ]
          ]
        ]
      }
    },
    {
      "type": "Feature",
      "id": "LU-PF-02",
      "properties": {
        "id": "LU-PF-02",
        "layer": "LAND_USE",
        "name_zh": "产业与社区连续经营缓冲带",
        "land_use_code": "0702",
        "area_sqm_declared": 3259222.992,
        "source_type": "agent_generated_design",
        "confidence": "low",
        "geometry_role": "design_proposal",
        "usage_note": "概念性空间治理分带，不替代现状调查、法定用地或控规调整。"
      },
      "geometry": {
        "type": "Polygon",
        "coordinates": [
          [
            [
              116.3553,
              39.965
            ],
            [
              116.3553,
              39.953
            ],
            [
              116.3403111111111,
              39.953
            ],
            [
              116.3397,
              39.975
            ],
            [
              116.33974838709676,
              39.97575
            ],
            [
              116.35444,
              39.97575
            ],
            [
              116.3553,
              39.965
            ]
          ]
        ]
      }
    },
    {
      "type": "Feature",
      "id": "LU-PF-03",
      "properties": {
        "id": "LU-PF-03",
        "layer": "LAND_USE",
        "name_zh": "AI原点共测与证据服务带",
        "land_use_code": "0802",
        "area_sqm_declared": 2653048.417,
        "source_type": "agent_generated_design",
        "confidence": "low",
        "geometry_role": "design_proposal",
        "usage_note": "概念性空间治理分带，不替代现状调查、法定用地或控规调整。"
      },
      "geometry": {
        "type": "Polygon",
        "coordinates": [
          [
            [
              116.3533,
              39.99
            ],
            [
              116.35444,
              39.97575
            ],
            [
              116.33974838709676,
              39.97575
            ],
            [
              116.34110322580645,
              39.99675
            ],
            [
              116.3536698630137,
              39.99675
            ],
            [
              116.3533,
              39.99
            ]
          ]
        ]
      }
    },
    {
      "type": "Feature",
      "id": "LU-PF-04",
      "properties": {
        "id": "LU-PF-04",
        "layer": "LAND_USE",
        "name_zh": "蓝绿连续通行与恢复观察带",
        "land_use_code": "14",
        "area_sqm_declared": 1868390.23,
        "source_type": "agent_generated_design",
        "confidence": "low",
        "geometry_role": "design_proposal",
        "usage_note": "概念性空间治理分带，不替代现状调查、法定用地或控规调整。"
      },
      "geometry": {
        "type": "Polygon",
        "coordinates": [
          [
            [
              116.3536698630137,
              39.99675
            ],
            [
              116.34110322580645,
              39.99675
            ],
            [
              116.3417,
              40.006
            ],
            [
              116.34201707317074,
              40.012499999999996
            ],
            [
              116.35453287671233,
              40.012499999999996
            ],
            [
              116.3536698630137,
              39.99675
            ]
          ]
        ]
      }
    },
    {
      "type": "Feature",
      "id": "LU-PF-05",
      "properties": {
        "id": "LU-PF-05",
        "layer": "LAND_USE",
        "name_zh": "众智园证据实验与研发带",
        "land_use_code": "0804",
        "area_sqm_declared": 1666637.161,
        "source_type": "agent_generated_design",
        "confidence": "low",
        "geometry_role": "design_proposal",
        "usage_note": "概念性空间治理分带，不替代现状调查、法定用地或控规调整。"
      },
      "geometry": {
        "type": "Polygon",
        "coordinates": [
          [
            [
              116.35453287671233,
              40.012499999999996
            ],
            [
              116.34201707317074,
              40.012499999999996
            ],
            [
              116.3427,
              40.0265
            ],
            [
              116.3553,
              40.0265
            ],
            [
              116.35453287671233,
              40.012499999999996
            ]
          ]
        ]
      }
    }
  ]
}
