{
  "type": "FeatureCollection",
  "name": "passage_first_evidence_gated_phasing",
  "features": [
    {
      "type": "Feature",
      "id": "PHASE-PF-01",
      "properties": {
        "id": "PHASE-PF-01",
        "layer": "PHASE",
        "name_zh": "阶段一：众智园离线证据实验（需授权）",
        "phase": 1,
        "area_sqm_declared": 1929201.877,
        "source_type": "agent_generated_design",
        "confidence": "low",
        "geometry_role": "design_proposal",
        "usage_note": "验证顺序而非建设时序；必须通过书面授权门槛后才能进入真实场景。"
      },
      "geometry": {
        "type": "Polygon",
        "coordinates": [
          [
            [
              116.343,
              40.0075
            ],
            [
              116.354,
              40.0075
            ],
            [
              116.354,
              40.026
            ],
            [
              116.343,
              40.026
            ],
            [
              116.343,
              40.0075
            ]
          ]
        ]
      }
    },
    {
      "type": "Feature",
      "id": "PHASE-PF-02",
      "properties": {
        "id": "PHASE-PF-02",
        "layer": "PHASE",
        "name_zh": "阶段二：AI原点受控共测（需授权）",
        "phase": 2,
        "area_sqm_declared": 1043236.909,
        "source_type": "agent_generated_design",
        "confidence": "low",
        "geometry_role": "design_proposal",
        "usage_note": "验证顺序而非建设时序；必须通过书面授权门槛后才能进入真实场景。"
      },
      "geometry": {
        "type": "Polygon",
        "coordinates": [
          [
            [
              116.342,
              39.9835
            ],
            [
              116.353,
              39.9835
            ],
            [
              116.353,
              39.9935
            ],
            [
              116.342,
              39.9935
            ],
            [
              116.342,
              39.9835
            ]
          ]
        ]
      }
    },
    {
      "type": "Feature",
      "id": "PHASE-PF-03",
      "properties": {
        "id": "PHASE-PF-03",
        "layer": "PHASE",
        "name_zh": "阶段三：大钟寺名称关联场景核验（需官方边界与授权）",
        "phase": 3,
        "area_sqm_declared": 720454.219,
        "source_type": "agent_generated_design",
        "confidence": "low",
        "geometry_role": "design_proposal",
        "usage_note": "验证顺序而非建设时序；必须通过书面授权门槛后才能进入真实场景。"
      },
      "geometry": {
        "type": "Polygon",
        "coordinates": [
          [
            [
              116.342,
              39.944
            ],
            [
              116.355,
              39.944
            ],
            [
              116.355,
              39.94984
            ],
            [
              116.342,
              39.94984
            ],
            [
              116.342,
              39.944
            ]
          ]
        ]
      }
    }
  ]
}
