{
  "type": "FeatureCollection",
  "name": "passage_first_evidence_interfaces",
  "features": [
    {
      "type": "Feature",
      "id": "PUBLIC-PF-01",
      "properties": {
        "id": "PUBLIC-PF-01",
        "layer": "PUBLIC_SPACE",
        "name_zh": "大钟寺名称关联证据接口",
        "area_sqm_declared": 7226.608,
        "source_type": "agent_generated_design",
        "confidence": "low",
        "geometry_role": "design_proposal",
        "usage_note": "概念性责任与证据接口；不表示真实设施、门址、开放状态或土地授权。"
      },
      "geometry": {
        "type": "Polygon",
        "coordinates": [
          [
            [
              116.34905932749963,
              39.94688076938086
            ],
            [
              116.34905163806013,
              39.94683876180269
            ],
            [
              116.34903863606284,
              39.94679753660428
            ],
            [
              116.34902044673306,
              39.94675749080517
            ],
            [
              116.3489972452518,
              39.94671901006598
            ],
            [
              116.34896925506854,
              39.94668246497444
            ],
            [
              116.34893674574899,
              39.94664820747644
            ],
            [
              116.34890003037879,
              39.946616567486856
            ],
            [
              116.34885946254828,
              39.946587849712316
            ],
            [
              116.34881543294706,
              39.94656233071688
            ],
            [
              116.34876836560163,
              39.94654025625877
            ],
            [
              116.3487187137918,
              39.946521838923665
            ],
            [
              116.34866695568547,
              39.94650725607758
            ],
            [
              116.34861358973394,
              39.94649664815874
            ],
            [
              116.34855912987186,
              39.94649011732533
            ],
            [
              116.34850410056796,
              39.94648772647161
            ],
            [
              116.34844903177462,
              39.946489498622284
            ],
            [
              116.34839445382447,
              39.94649541671082
            ],
            [
              116.3483408923234,
              39.946505423743766
            ],
            [
              116.34828886308902,
              39.94651942334957
            ],
            [
              116.34823886718341,
              39.94653728070671
            ],
            [
              116.348191386088,
              39.946558823841904
            ],
            [
              116.34814687706671,
              39.946583845286256
            ],
            [
              116.34810576876266,
              39.94661210407319
            ],
            [
              116.34806845707001,
              39.9466433280589
            ],
            [
              116.34803530132156,
              39.946677216543094
            ],
            [
              116.34800662082787,
              39.94671344316484
            ],
            [
              116.34798269180232,
              39.94675165904536
            ],
            [
              116.34796374470059,
              39.94679149614788
            ],
            [
              116.34794996200122,
              39.94683257082182
            ],
            [
              116.34794147644782,
              39.94687448749753
            ],
            [
              116.34793836977035,
              39.94691684249572
            ],
            [
              116.3479406718977,
              39.94695922791513
            ],
            [
              116.34794836066916,
              39.94700123556075
            ],
            [
              116.34796136204722,
              39.94704246087504
            ],
            [
              116.34797955083043,
              39.947082506834
            ],
            [
              116.34800275185873,
              39.94712098777085
            ],
            [
              116.34803074170004,
              39.94715753309031
            ],
            [
              116.34806325080187,
              39.94719179083766
            ],
            [
              116.34809996608688,
              39.94722343108852
            ],
            [
              116.34814053396805,
              39.94725214912616
            ],
            [
              116.34818456375376,
              39.94727766837644
            ],
            [
              116.34823163141047,
              39.947299743071326
            ],
            [
              116.34828128364643,
              39.94731816061605
            ],
            [
              116.34833304227735,
              39.947332743636544
            ],
            [
              116.34838640883173,
              39.94734335168788
            ],
            [
              116.34844086935178,
              39.94734988260678
            ],
            [
              116.3484958993435,
              39.9473522734957
            ],
            [
              116.34855096882805,
              39.94735050132859
            ],
            [
              116.34860554744628,
              39.947344583172594
            ],
            [
              116.34865910956658,
              39.94733457602377
            ],
            [
              116.34871113934754,
              39.9473205762581
            ],
            [
              116.3487611357061,
              39.9473027187033
            ],
            [
              116.34880861714346,
              39.94728117534021
            ],
            [
              116.34885312638248,
              39.947256153646485
            ],
            [
              116.34889423477172,
              39.9472278945983
            ],
            [
              116.34893154641371,
              39.9471966703495
            ],
            [
              116.34896470197766,
              39.947162781610466
            ],
            [
              116.34899338216006,
              39.94712655475192
            ],
            [
              116.3490173107595,
              39.94708833866177
            ],
            [
              116.34903625733664,
              39.947048501384835
            ],
            [
              116.34905003943315,
              39.9470074265784
            ],
            [
              116.3490585243286,
              39.94696550981722
            ],
            [
              116.34906163031825,
              39.946923154783825
            ],
            [
              116.34905932749963,
              39.94688076938086
            ]
          ]
        ]
      }
    },
    {
      "type": "Feature",
      "id": "PUBLIC-PF-02",
      "properties": {
        "id": "PUBLIC-PF-02",
        "layer": "PUBLIC_SPACE",
        "name_zh": "AI原点共测接口",
        "area_sqm_declared": 7226.608,
        "source_type": "agent_generated_design",
        "confidence": "low",
        "geometry_role": "design_proposal",
        "usage_note": "概念性责任与证据接口；不表示真实设施、门址、开放状态或土地授权。"
      },
      "geometry": {
        "type": "Polygon",
        "coordinates": [
          [
            [
              116.34805966732347,
              39.98846077721536
            ],
            [
              116.34805197418193,
              39.98841876983863
            ],
            [
              116.34803896524562,
              39.9883775447643
            ],
            [
              116.34802076580662,
              39.98833749901069
            ],
            [
              116.3479975511434,
              39.988299018237996
            ],
            [
              116.34796954483238,
              39.98826247303425
            ],
            [
              116.34793701659453,
              39.988228215346425
            ],
            [
              116.34790027969778,
              39.98819657509122
            ],
            [
              116.34785968793973,
              39.988167856977824
            ],
            [
              116.34781563224043,
              39.98814233757356
            ],
            [
              116.34776853687772,
              39.98812026264054
            ],
            [
              116.34771885540123,
              39.988101844769076
            ],
            [
              116.34766706626452,
              39.98808726133028
            ],
            [
              116.34761366821776,
              39.98807665276812
            ],
            [
              116.34755917550461,
              39.98807012124698
            ],
            [
              116.34750411291024,
              39.9880677296677
            ],
            [
              116.34744901070756,
              39.988069501062
            ],
            [
              116.34739439955094,
              39.98807541837063
            ],
            [
              116.34734080536604,
              39.988085424607654
            ],
            [
              116.34728874428522,
              39.988099423409196
            ],
            [
              116.34723871767726,
              39.98811727996144
            ],
            [
              116.34719120731921,
              39.9881388222989
            ],
            [
              116.34714667075684,
              39.98816384296036
            ],
            [
              116.34710553689848,
              39.98819210098677
            ],
            [
              116.34706820188441,
              39.98822332424167
            ],
            [
              116.34703502527199,
              39.98825721203184
            ],
            [
              116.34700632657277,
              39.98829343800299
            ],
            [
              116.34698238217541,
              39.988331653282636
            ],
            [
              116.34696342268367,
              39.988371489839786
            ],
            [
              116.34694963069546,
              39.98841256402911
            ],
            [
              116.34694113904378,
              39.98845448028563
            ],
            [
              116.3469380295174,
              39.988496834934125
            ],
            [
              116.3469403320727,
              39.98853922007668
            ],
            [
              116.3469480245448,
              39.98858122752096
            ],
            [
              116.34696103286058,
              39.98862245271133
            ],
            [
              116.34697923175183,
              39.98866249862502
            ],
            [
              116.34700244596114,
              39.98870097959567
            ],
            [
              116.34703045192954,
              39.98873752502766
            ],
            [
              116.34706297994916,
              39.98877178296521
            ],
            [
              116.34709971676054,
              39.988803423482054
            ],
            [
              116.34714030856931,
              39.98883214185895
            ],
            [
              116.34718436445347,
              39.98885766151843
            ],
            [
              116.3472314601281,
              39.98887973668857
            ],
            [
              116.34728114203159,
              39.98889815476998
            ],
            [
              116.34733293169396,
              39.988912738383455
            ],
            [
              116.3473863303448,
              39.988923347078305
            ],
            [
              116.34744082371729,
              39.98892987868508
            ],
            [
              116.34749588700093,
              39.98893227029963
            ],
            [
              116.34755098989626,
              39.98893049888884
            ],
            [
              116.34760560172234,
              39.98892458151266
            ],
            [
              116.34765919652777,
              39.9889145751596
            ],
            [
              116.34771125815634,
              39.98890057619799
            ],
            [
              116.34776128521821,
              39.988882719447766
            ],
            [
              116.3478087959189,
              39.988861176882075
            ],
            [
              116.34785333269947,
              39.98883615597089
            ],
            [
              116.34789446664323,
              39.988807897682825
            ],
            [
              116.34793180160658,
              39.98877667416443
            ],
            [
              116.3479649780341,
              39.98874278611905
            ],
            [
              116.34799367642141,
              39.98870655991076
            ],
            [
              116.34801762039179,
              39.98866834442118
            ],
            [
              116.34803657935787,
              39.98862850768936
            ],
            [
              116.34805037074199,
              39.98858743336734
            ],
            [
              116.34805886173432,
              39.98854551702518
            ],
            [
              116.34806197057144,
              39.98850316234143
            ],
            [
              116.34805966732347,
              39.98846077721536
            ]
          ]
        ]
      }
    },
    {
      "type": "Feature",
      "id": "PUBLIC-PF-03",
      "properties": {
        "id": "PUBLIC-PF-03",
        "layer": "PUBLIC_SPACE",
        "name_zh": "众智园证据实验接口",
        "area_sqm_declared": 7226.608,
        "source_type": "agent_generated_design",
        "confidence": "low",
        "geometry_role": "design_proposal",
        "usage_note": "概念性责任与证据接口；不表示真实设施、门址、开放状态或土地授权。"
      },
      "geometry": {
        "type": "Polygon",
        "coordinates": [
          [
            [
              116.34905989775724,
              40.01671077441989
            ],
            [
              116.34905220106481,
              40.01666876728333
            ],
            [
              116.3490391863926,
              40.01662754247377
            ],
            [
              116.349020979088,
              40.01658749700701
            ],
            [
              116.34899775450516,
              40.01654901654045
            ],
            [
              116.34896973631612,
              40.0165124716592
            ],
            [
              116.34893719435628,
              40.01647821430713
            ],
            [
              116.34890044202562,
              40.01644657439766
            ],
            [
              116.34885983327042,
              40.01641785663667
            ],
            [
              116.34881575917447,
              40.016392337588094
            ],
            [
              116.3487686441927,
              40.016370263010636
            ],
            [
              116.34871894206368,
              40.01635184549111
            ],
            [
              116.34866713143994,
              40.0163372623973
            ],
            [
              116.34861371127849,
              40.01632665416982
            ],
            [
              116.34855919603599,
              40.01632012296982
            ],
            [
              116.34850411071453,
              40.01631773169508
            ],
            [
              116.34844898580592,
              40.01631950337438
            ],
            [
              116.34839435218318,
              40.016325420945705
            ],
            [
              116.34834073598829,
              40.01633542742059
            ],
            [
              116.3482886535656,
              40.01634942643289
            ],
            [
              116.3482386064894,
              40.01636728316675
            ],
            [
              116.34819107673384,
              40.01638882565494
            ],
            [
              116.34814652203153,
              40.0164138464348
            ],
            [
              116.34810537146544,
              40.01644210454614
            ],
            [
              116.34806802133677,
              40.01647332785169
            ],
            [
              116.34803483134847,
              40.01650721565773
            ],
            [
              116.34800612114088,
              40.016543441609834
            ],
            [
              116.34798216721352,
              40.01658165683571
            ],
            [
              116.34796320026194,
              40.016621493304875
            ],
            [
              116.34794940295585,
              40.01666256737285
            ],
            [
              116.34794090817957,
              40.016704483475834
            ],
            [
              116.34793779775191,
              40.01674683794009
            ],
            [
              116.34794010163795,
              40.01678922286945
            ],
            [
              116.34794779766003,
              40.01683123007367
            ],
            [
              116.34796081171082,
              40.01687245499941
            ],
            [
              116.34797901846693,
              40.01691250062643
            ],
            [
              116.34800224259521,
              40.01695098129116
            ],
            [
              116.34803026044113,
              40.016987526400875
            ],
            [
              116.34806280218251,
              40.01702178400296
            ],
            [
              116.34809955442768,
              40.01705342417432
            ],
            [
              116.34814016323371,
              40.017082142199065
            ],
            [
              116.34818423751486,
              40.017107661503104
            ],
            [
              116.348231352809,
              40.01712973631794
            ],
            [
              116.34828105536563,
              40.01714815404759
            ],
            [
              116.3483328665158,
              40.017162737316234
            ],
            [
              116.34838628728222,
              40.01717334567654
            ],
            [
              116.348440803185,
              40.01717987696222
            ],
            [
              116.34849588919667,
              40.01718226827223
            ],
            [
              116.34855101479893,
              40.01718049657643
            ],
            [
              116.34860564909208,
              40.01717457893747
            ],
            [
              116.34865926590832,
              40.0171645723464
            ],
            [
              116.34871134887953,
              40.01715057317385
            ],
            [
              116.34876139641027,
              40.01713271624182
            ],
            [
              116.34880892650892,
              40.017111173525144
            ],
            [
              116.34885348142973,
              40.0170861524953
            ],
            [
              116.3488946320813,
              40.01705789412205
            ],
            [
              116.34893198215914,
              40.017026670552745
            ],
            [
              116.34896517196228,
              40.016992782491236
            ],
            [
              116.34899388185747,
              40.01695655630178
            ],
            [
              116.34901783535722,
              40.016918340865764
            ],
            [
              116.34903680178239,
              40.016878504221765
            ],
            [
              116.3490505984835,
              40.01683743002097
            ],
            [
              116.34905909259949,
              40.016795513832285
            ],
            [
              116.34906220233694,
              40.01675315933276
            ],
            [
              116.34905989775724,
              40.01671077441989
            ]
          ]
        ]
      }
    }
  ]
}
