{
  "type": "FeatureCollection",
  "name": "passage_first_conceptual_connections",
  "features": [
    {
      "type": "Feature",
      "id": "ROAD-PF-01",
      "properties": {
        "id": "ROAD-PF-01",
        "layer": "ROAD_CENTERLINE",
        "name_zh": "临时通过责任脊柱（概念）",
        "road_class": "greenway",
        "source_type": "agent_generated_design",
        "confidence": "low",
        "geometry_role": "design_proposal",
        "length_m_declared": 7755.773,
        "usage_note": "仅用于说明三重点区域共享同一证据合同，不是可通行路线、红线或施工导改方案。"
      },
      "geometry": {
        "type": "LineString",
        "coordinates": [
          [
            116.3485,
            39.94692
          ],
          [
            116.3475,
            39.9885
          ],
          [
            116.3485,
            40.01675
          ]
        ]
      }
    },
    {
      "type": "Feature",
      "id": "ROAD-PF-02",
      "properties": {
        "id": "ROAD-PF-02",
        "layer": "ROAD_CENTERLINE",
        "name_zh": "AI原点跨线共测接口（概念）",
        "road_class": "pedestrian",
        "source_type": "agent_generated_design",
        "confidence": "low",
        "geometry_role": "design_proposal",
        "length_m_declared": 1086.434,
        "usage_note": "真实穿越关系、尺寸、坡度、信号与产权均为 UNKNOWN。"
      },
      "geometry": {
        "type": "LineString",
        "coordinates": [
          [
            116.3407,
            39.9885
          ],
          [
            116.35342,
            39.9885
          ]
        ]
      }
    }
  ]
}
