{
  "type": "FeatureCollection",
  "name": "sound_line_buildings",
  "features": [
    {
      "type": "Feature",
      "id": "SL-BLDG-002",
      "properties": {
        "id": "SL-BLDG-002",
        "layer": "BUILDING_FOOTPRINT",
        "name_zh": "端侧音频算力驿站",
        "source_type": "agent_inferred_from_public_data",
        "confidence": "medium",
        "geometry_role": "design_proposal",
        "official_boundary": false,
        "boundary_precision": "provisional_rough",
        "area_sqm_declared": 105805.684
      },
      "geometry": {
        "type": "Polygon",
        "coordinates": [
          [
            [
              116.34170927999999,
              39.9985
            ],
            [
              116.34170927999999,
              39.98274999999999
            ],
            [
              116.34049288368271,
              39.982750002785345
            ],
            [
              116.34150908337567,
              39.998500001336176
            ],
            [
              116.34170927999999,
              39.9985
            ]
          ]
        ]
      }
    },
    {
      "type": "Feature",
      "id": "SL-BLDG-003",
      "properties": {
        "id": "SL-BLDG-003",
        "layer": "BUILDING_FOOTPRINT",
        "name_zh": "大钟寺智能原生声学商业综合体",
        "source_type": "agent_inferred_from_public_data",
        "confidence": "medium",
        "geometry_role": "design_proposal",
        "official_boundary": false,
        "boundary_precision": "provisional_rough",
        "area_sqm_declared": 287881.243
      },
      "geometry": {
        "type": "Polygon",
        "coordinates": [
          [
            [
              116.349216,
              40.01950000000001
            ],
            [
              116.349216,
              40.00200000000001
            ],
            [
              116.34748091134884,
              40.00200000037092
            ],
            [
              116.3474808890637,
              40.0195000003708
            ],
            [
              116.349216,
              40.01950000000001
            ]
          ]
        ]
      }
    },
    {
      "type": "Feature",
      "id": "SL-BLDG-004",
      "properties": {
        "id": "SL-BLDG-004",
        "layer": "BUILDING_FOOTPRINT",
        "name_zh": "小月河场景赋能翼服务楼",
        "source_type": "agent_inferred_from_public_data",
        "confidence": "medium",
        "geometry_role": "design_proposal",
        "official_boundary": false,
        "boundary_precision": "provisional_rough",
        "area_sqm_declared": 242267.09
      },
      "geometry": {
        "type": "Polygon",
        "coordinates": [
          [
            [
              116.3516496,
              40.01775
            ],
            [
              116.353272,
              40.01775
            ],
            [
              116.353272,
              40.002
            ],
            [
              116.3516496,
              40.00200000000001
            ],
            [
              116.3516496,
              40.01775
            ]
          ]
        ]
      }
    }
  ]
}