{
  "type": "FeatureCollection",
  "name": "sound_line_constraints",
  "features": [
    {
      "type": "Feature",
      "id": "SL-CON-001",
      "properties": {
        "id": "SL-CON-001",
        "layer": "HERITAGE_PROTECTION",
        "constraint_type": "heritage_concept_buffer",
        "name_zh": "京张文化遗存概念缓冲带（待正式文保图层）",
        "source_type": "agent_inferred_from_public_data",
        "confidence": "low",
        "geometry_role": "provisional_constraint",
        "official_boundary": false,
        "boundary_precision": "provisional_rough",
        "constraint_note_zh": "概念约束：仅供空间设计参考，待正式文保蓝线绿线等约束文件补齐后复算。",
        "area_sqm_declared": 1742332.235
      },
      "geometry": {
        "type": "Polygon",
        "coordinates": [
          [
            [
              116.3441544,
              39.955
            ],
            [
              116.3470704,
              39.955
            ],
            [
              116.3470704,
              40.018
            ],
            [
              116.3441544,
              40.018
            ],
            [
              116.3441544,
              39.955
            ]
          ]
        ]
      }
    },
    {
      "type": "Feature",
      "id": "SL-CON-002",
      "properties": {
        "id": "SL-CON-002",
        "layer": "REGULATORY_CONTROL",
        "constraint_type": "bluegreen_concept_corridor",
        "name_zh": "清河—小月河蓝绿线概念廊（待正式蓝线绿线）",
        "source_type": "agent_inferred_from_public_data",
        "confidence": "low",
        "geometry_role": "provisional_constraint",
        "official_boundary": false,
        "boundary_precision": "provisional_rough",
        "constraint_note_zh": "概念约束：仅供空间设计参考，待正式文保蓝线绿线等约束文件补齐后复算。",
        "area_sqm_declared": 239115.208
      },
      "geometry": {
        "type": "Polygon",
        "coordinates": [
          [
            [
              116.3409,
              39.94
            ],
            [
              116.3418,
              39.94
            ],
            [
              116.3418,
              39.968
            ],
            [
              116.3409,
              39.968
            ],
            [
              116.3409,
              39.94
            ]
          ]
        ]
      }
    }
  ]
}