{
  "type": "FeatureCollection",
  "name": "sound_line_green_space",
  "features": [
    {
      "type": "Feature",
      "id": "SL-GREEN-001",
      "properties": {
        "id": "SL-GREEN-001",
        "layer": "GREEN_SPACE",
        "land_use_code": "1401",
        "name_zh": "声音脊主题公园（京张遗址活力带主廊道）",
        "source_type": "agent_inferred_from_public_data",
        "confidence": "medium",
        "geometry_role": "design_proposal",
        "official_boundary": false,
        "boundary_precision": "provisional_rough",
        "area_sqm_declared": 1423811.07
      },
      "geometry": {
        "type": "Polygon",
        "coordinates": [
          [
            [
              116.3447544,
              39.93901
            ],
            [
              116.3464704,
              39.93901
            ],
            [
              116.3464704,
              40.026489999999995
            ],
            [
              116.3447544,
              40.026489999999995
            ],
            [
              116.3447544,
              39.93901
            ]
          ]
        ]
      }
    },
    {
      "type": "Feature",
      "id": "SL-GREEN-002",
      "properties": {
        "id": "SL-GREEN-002",
        "layer": "GREEN_SPACE",
        "land_use_code": "1401",
        "name_zh": "原点声音园 · 研发绿地",
        "source_type": "agent_inferred_from_public_data",
        "confidence": "medium",
        "geometry_role": "design_proposal",
        "official_boundary": false,
        "boundary_precision": "provisional_rough",
        "area_sqm_declared": 183644.155
      },
      "geometry": {
        "type": "Polygon",
        "coordinates": [
          [
            [
              116.34162191999998,
              39.97574999999999
            ],
            [
              116.34004944,
              39.97575
            ],
            [
              116.34004944032709,
              39.975875067183445
            ],
            [
              116.34162192428623,
              40.00024851170719
            ],
            [
              116.34162191999998,
              39.97574999999999
            ]
          ]
        ]
      }
    },
    {
      "type": "Feature",
      "id": "SL-GREEN-003",
      "properties": {
        "id": "SL-GREEN-003",
        "layer": "GREEN_SPACE",
        "land_use_code": "1401",
        "name_zh": "众智全栈验证绿地",
        "source_type": "agent_inferred_from_public_data",
        "confidence": "medium",
        "geometry_role": "design_proposal",
        "official_boundary": false,
        "boundary_precision": "provisional_rough",
        "area_sqm_declared": 307879.288
      },
      "geometry": {
        "type": "Polygon",
        "coordinates": [
          [
            [
              116.34004944,
              39.974
            ],
            [
              116.34162191999998,
              39.97399999999999
            ],
            [
              116.34162191999998,
              39.947750000000006
            ],
            [
              116.34074965891129,
              39.947750002634265
            ],
            [
              116.34004944262871,
              39.972958572751075
            ],
            [
              116.34004944,
              39.974
            ]
          ]
        ]
      }
    },
    {
      "type": "Feature",
      "id": "SL-GREEN-004",
      "properties": {
        "id": "SL-GREEN-004",
        "layer": "GREEN_SPACE",
        "land_use_code": "1401",
        "name_zh": "大钟寺声音产业园绿地",
        "source_type": "agent_inferred_from_public_data",
        "confidence": "medium",
        "geometry_role": "design_proposal",
        "official_boundary": false,
        "boundary_precision": "provisional_rough",
        "area_sqm_declared": 331029.931
      },
      "geometry": {
        "type": "Polygon",
        "coordinates": [
          [
            [
              116.3488104,
              39.995
            ],
            [
              116.3488104,
              39.96875
            ],
            [
              116.34748078668527,
              39.968750000283485
            ],
            [
              116.34748090328519,
              39.995000000284165
            ],
            [
              116.3488104,
              39.995
            ]
          ]
        ]
      }
    },
    {
      "type": "Feature",
      "id": "SL-GREEN-005",
      "properties": {
        "id": "SL-GREEN-005",
        "layer": "GREEN_SPACE",
        "land_use_code": "1401",
        "name_zh": "小月河场景赋能翼滨水绿地",
        "source_type": "agent_inferred_from_public_data",
        "confidence": "medium",
        "geometry_role": "design_proposal",
        "official_boundary": false,
        "boundary_precision": "provisional_rough",
        "area_sqm_declared": 386255.825
      },
      "geometry": {
        "type": "Polygon",
        "coordinates": [
          [
            [
              116.35310976000002,
              39.965250000000005
            ],
            [
              116.3516496,
              39.965250000000005
            ],
            [
              116.3516496,
              39.993249999999996
            ],
            [
              116.35310976000002,
              39.99324999999999
            ],
            [
              116.35310976359119,
              39.991875817678455
            ],
            [
              116.35300755193379,
              39.99000947608583
            ],
            [
              116.35300784568807,
              39.98998616588715
            ],
            [
              116.35310977044855,
              39.98871265530709
            ],
            [
              116.35310976000002,
              39.965250000000005
            ]
          ]
        ]
      }
    }
  ]
}