{
  "type": "FeatureCollection",
  "name": "sound_line_land_use",
  "metadata": {
    "source": "provisional site package + design proposal",
    "official_boundary_available_in_repository": false,
    "geometry_role": "design_proposal",
    "coverage_note": "land-use polygons tile the submitted provisional site boundary without gaps or overlaps"
  },
  "features": [
    {
      "type": "Feature",
      "id": "SL-LU-001",
      "properties": {
        "id": "SL-LU-001",
        "layer": "LAND_USE",
        "land_use_code": "0802",
        "name_zh": "声音研发创新用地（AI原点–众智园全栈研发）",
        "source_type": "agent_inferred_from_public_data",
        "confidence": "medium",
        "geometry_role": "design_proposal",
        "official_boundary": false,
        "boundary_precision": "provisional_rough",
        "area_sqm_declared": 2674562.492
      },
      "geometry": {
        "type": "Polygon",
        "coordinates": [
          [
            [
              116.3407,
              39.939
            ],
            [
              116.3397,
              39.975
            ],
            [
              116.3417,
              40.006
            ],
            [
              116.3427,
              40.0265
            ],
            [
              116.344068,
              40.0265
            ],
            [
              116.344068,
              39.939
            ],
            [
              116.3407,
              39.939
            ]
          ]
        ]
      }
    },
    {
      "type": "Feature",
      "id": "SL-LU-002",
      "properties": {
        "id": "SL-LU-002",
        "layer": "LAND_USE",
        "land_use_code": "1401",
        "name_zh": "声音脊公共开敞用地（京张遗址公园活力带）",
        "source_type": "agent_inferred_from_public_data",
        "confidence": "medium",
        "geometry_role": "design_proposal",
        "official_boundary": false,
        "boundary_precision": "provisional_rough",
        "area_sqm_declared": 2589339.239
      },
      "geometry": {
        "type": "Polygon",
        "coordinates": [
          [
            [
              116.344068,
              39.939
            ],
            [
              116.344068,
              40.0265
            ],
            [
              116.347188,
              40.0265
            ],
            [
              116.347188,
              39.939
            ],
            [
              116.344068,
              39.939
            ]
          ]
        ]
      }
    },
    {
      "type": "Feature",
      "id": "SL-LU-003",
      "properties": {
        "id": "SL-LU-003",
        "layer": "LAND_USE",
        "land_use_code": "05",
        "name_zh": "声音产业服务与智能原生商业用地（大钟寺产业集聚）",
        "source_type": "agent_inferred_from_public_data",
        "confidence": "medium",
        "geometry_role": "design_proposal",
        "official_boundary": false,
        "boundary_precision": "provisional_rough",
        "area_sqm_declared": 3366138.181
      },
      "geometry": {
        "type": "Polygon",
        "coordinates": [
          [
            [
              116.347188,
              39.939
            ],
            [
              116.347188,
              40.0265
            ],
            [
              116.351244,
              40.0265
            ],
            [
              116.351244,
              39.939
            ],
            [
              116.347188,
              39.939
            ]
          ]
        ]
      }
    },
    {
      "type": "Feature",
      "id": "SL-LU-004",
      "properties": {
        "id": "SL-LU-004",
        "layer": "LAND_USE",
        "land_use_code": "0702",
        "name_zh": "声音社区生活与配套服务用地（小月河场景赋能翼）",
        "source_type": "agent_inferred_from_public_data",
        "confidence": "medium",
        "geometry_role": "design_proposal",
        "official_boundary": false,
        "boundary_precision": "provisional_rough",
        "area_sqm_declared": 2782792.823
      },
      "geometry": {
        "type": "Polygon",
        "coordinates": [
          [
            [
              116.3553,
              40.0265
            ],
            [
              116.3533,
              39.99
            ],
            [
              116.3553,
              39.965
            ],
            [
              116.3553,
              39.939
            ],
            [
              116.351244,
              39.939
            ],
            [
              116.351244,
              40.0265
            ],
            [
              116.3553,
              40.0265
            ]
          ]
        ]
      }
    }
  ]
}