{
  "type": "FeatureCollection",
  "name": "sound_line_phasing",
  "features": [
    {
      "type": "Feature",
      "id": "SL-PHASE-01",
      "properties": {
        "id": "SL-PHASE-01",
        "layer": "PHASE",
        "phase_order": 1,
        "name_zh": "一期：原点与声音脊示范段（抢跑·可听见）",
        "phase_note_zh": "以AI原点社区与声音脊南段为示范，落地呼叫协议与首组呼号站，作为可体验、可停测的启动段。",
        "source_type": "agent_inferred_from_public_data",
        "confidence": "medium",
        "geometry_role": "design_proposal",
        "official_boundary": false,
        "boundary_precision": "provisional_rough",
        "area_sqm_declared": 2674562.492
      },
      "geometry": {
        "type": "Polygon",
        "coordinates": [
          [
            [
              116.3407,
              39.939
            ],
            [
              116.3397,
              39.975
            ],
            [
              116.3417,
              40.006
            ],
            [
              116.3427,
              40.0265
            ],
            [
              116.344068,
              40.0265
            ],
            [
              116.344068,
              39.939
            ],
            [
              116.3407,
              39.939
            ]
          ]
        ]
      }
    },
    {
      "type": "Feature",
      "id": "SL-PHASE-02",
      "properties": {
        "id": "SL-PHASE-02",
        "layer": "PHASE",
        "phase_order": 2,
        "name_zh": "二期：众智全栈与产业中段（验证·可迭代）",
        "phase_note_zh": "众智园全栈自主体系与AI产业测试验证场景上线，形成产业-测试-运营闭环。",
        "source_type": "agent_inferred_from_public_data",
        "confidence": "medium",
        "geometry_role": "design_proposal",
        "official_boundary": false,
        "boundary_precision": "provisional_rough",
        "area_sqm_declared": 3366138.181
      },
      "geometry": {
        "type": "Polygon",
        "coordinates": [
          [
            [
              116.347188,
              39.939
            ],
            [
              116.347188,
              40.0265
            ],
            [
              116.351244,
              40.0265
            ],
            [
              116.351244,
              39.939
            ],
            [
              116.347188,
              39.939
            ]
          ]
        ]
      }
    },
    {
      "type": "Feature",
      "id": "SL-PHASE-03",
      "properties": {
        "id": "SL-PHASE-03",
        "layer": "PHASE",
        "phase_order": 3,
        "name_zh": "三期：大钟寺与小月河场景翼（共创·可运营）",
        "phase_note_zh": "大钟寺智能原生业态与小月河场景赋能翼成网，进入长期运营与全球活动体系。",
        "source_type": "agent_inferred_from_public_data",
        "confidence": "medium",
        "geometry_role": "design_proposal",
        "official_boundary": false,
        "boundary_precision": "provisional_rough",
        "area_sqm_declared": 2782792.823
      },
      "geometry": {
        "type": "Polygon",
        "coordinates": [
          [
            [
              116.3553,
              40.0265
            ],
            [
              116.3533,
              39.99
            ],
            [
              116.3553,
              39.965
            ],
            [
              116.3553,
              39.939
            ],
            [
              116.351244,
              39.939
            ],
            [
              116.351244,
              40.0265
            ],
            [
              116.3553,
              40.0265
            ]
          ]
        ]
      }
    }
  ]
}