{
  "type": "FeatureCollection",
  "name": "sound_line_public_space",
  "features": [
    {
      "type": "Feature",
      "id": "SL-PUB-001",
      "properties": {
        "id": "SL-PUB-001",
        "layer": "PUBLIC_SPACE",
        "name_zh": "原点『听阈广场』（呼叫按钮公共界面）",
        "source_type": "agent_inferred_from_public_data",
        "confidence": "medium",
        "geometry_role": "design_proposal",
        "official_boundary": false,
        "boundary_precision": "provisional_rough",
        "area_sqm_declared": 1407.561
      },
      "geometry": {
        "type": "Polygon",
        "coordinates": [
          [
            [
              116.34153455999999,
              39.99675
            ],
            [
              116.34139615149189,
              39.99675000085634
            ],
            [
              116.34153456403949,
              39.99889484038193
            ],
            [
              116.34153455999999,
              39.99675
            ]
          ]
        ]
      }
    },
    {
      "type": "Feature",
      "id": "SL-PUB-002",
      "properties": {
        "id": "SL-PUB-002",
        "layer": "PUBLIC_SPACE",
        "name_zh": "众智『回声广场』（AI测试验证公共界面）",
        "source_type": "agent_inferred_from_public_data",
        "confidence": "medium",
        "geometry_role": "design_proposal",
        "official_boundary": false,
        "boundary_precision": "provisional_rough",
        "area_sqm_declared": 242659.115
      },
      "geometry": {
        "type": "Polygon",
        "coordinates": [
          [
            [
              116.3488104,
              40.016000000000005
            ],
            [
              116.3488104,
              39.996749999999984
            ],
            [
              116.34748090621041,
              39.99675000028417
            ],
            [
              116.34748089837251,
              40.016000000284166
            ],
            [
              116.3488104,
              40.016000000000005
            ]
          ]
        ]
      }
    },
    {
      "type": "Feature",
      "id": "SL-PUB-003",
      "properties": {
        "id": "SL-PUB-003",
        "layer": "PUBLIC_SPACE",
        "name_zh": "大钟寺『汽笛广场』（产业展示公共界面）",
        "source_type": "agent_inferred_from_public_data",
        "confidence": "medium",
        "geometry_role": "design_proposal",
        "official_boundary": false,
        "boundary_precision": "provisional_rough",
        "area_sqm_declared": 266507.259
      },
      "geometry": {
        "type": "Polygon",
        "coordinates": [
          [
            [
              116.35156848000001,
              40.016
            ],
            [
              116.35302864000002,
              40.016
            ],
            [
              116.35302864000002,
              39.99675
            ],
            [
              116.35156848000001,
              39.99675
            ],
            [
              116.35156848000001,
              40.016
            ]
          ]
        ]
      }
    }
  ]
}