{
  "type": "FeatureCollection",
  "name": "sound_line_roads",
  "features": [
    {
      "type": "Feature",
      "id": "SL-ROAD-001",
      "properties": {
        "id": "SL-ROAD-001",
        "layer": "ROAD_CENTERLINE",
        "road_class": "greenway",
        "name_zh": "声音脊慢行主廊道（步行+骑行+听景导览）",
        "source_type": "agent_inferred_from_public_data",
        "confidence": "medium",
        "geometry_role": "design_proposal",
        "official_boundary": false,
        "boundary_precision": "provisional_rough"
      },
      "geometry": {
        "type": "LineString",
        "coordinates": [
          [
            116.3456124,
            39.939
          ],
          [
            116.3456124,
            40.0265
          ]
        ]
      }
    },
    {
      "type": "Feature",
      "id": "SL-ROAD-002",
      "properties": {
        "id": "SL-ROAD-002",
        "layer": "ROAD_CENTERLINE",
        "road_class": "pedestrian",
        "name_zh": "东西缝合慢行连接（39.947）",
        "source_type": "agent_inferred_from_public_data",
        "confidence": "medium",
        "geometry_role": "design_proposal",
        "official_boundary": false,
        "boundary_precision": "provisional_rough"
      },
      "geometry": {
        "type": "LineString",
        "coordinates": [
          [
            116.3412,
            39.947
          ],
          [
            116.3546,
            39.947
          ]
        ]
      }
    },
    {
      "type": "Feature",
      "id": "SL-ROAD-003",
      "properties": {
        "id": "SL-ROAD-003",
        "layer": "ROAD_CENTERLINE",
        "road_class": "pedestrian",
        "name_zh": "东西缝合慢行连接（39.968）",
        "source_type": "agent_inferred_from_public_data",
        "confidence": "medium",
        "geometry_role": "design_proposal",
        "official_boundary": false,
        "boundary_precision": "provisional_rough"
      },
      "geometry": {
        "type": "LineString",
        "coordinates": [
          [
            116.3412,
            39.968
          ],
          [
            116.3546,
            39.968
          ]
        ]
      }
    },
    {
      "type": "Feature",
      "id": "SL-ROAD-004",
      "properties": {
        "id": "SL-ROAD-004",
        "layer": "ROAD_CENTERLINE",
        "road_class": "pedestrian",
        "name_zh": "东西缝合慢行连接（39.993）",
        "source_type": "agent_inferred_from_public_data",
        "confidence": "medium",
        "geometry_role": "design_proposal",
        "official_boundary": false,
        "boundary_precision": "provisional_rough"
      },
      "geometry": {
        "type": "LineString",
        "coordinates": [
          [
            116.3412,
            39.993
          ],
          [
            116.3546,
            39.993
          ]
        ]
      }
    },
    {
      "type": "Feature",
      "id": "SL-ROAD-005",
      "properties": {
        "id": "SL-ROAD-005",
        "layer": "ROAD_CENTERLINE",
        "road_class": "pedestrian",
        "name_zh": "东西缝合慢行连接（40.014）",
        "source_type": "agent_inferred_from_public_data",
        "confidence": "medium",
        "geometry_role": "design_proposal",
        "official_boundary": false,
        "boundary_precision": "provisional_rough"
      },
      "geometry": {
        "type": "LineString",
        "coordinates": [
          [
            116.3412,
            40.014
          ],
          [
            116.3546,
            40.014
          ]
        ]
      }
    }
  ]
}